CZ-2D R/B               
1 28738U 05024B   26062.10160237  .00046432  00000+0  58534-3 0  9991
2 28738  97.3595  77.0089 0006807  63.3295 296.8658 15.59451942138751
ALOS (DAICHI)           
1 28931U 06002A   26061.89942367  .00001726  00000+0  29746-3 0  9990
2 28931  98.1206  17.8895 0001184  51.1652 308.9660 14.69783069 72489
H-2A R/B                
1 28932U 06002B   26061.94419542  .00011604  00000+0  58336-3 0  9994
2 28932  98.2396 208.3895 0051953 264.2394  95.2912 15.16243282 93410
RESURS-DK 1             
1 29228U 06021A   26061.98907888  .00003053  00000+0  18010-3 0  9997
2 29228  69.9302 254.3570 0002469 165.6054 194.5183 15.12690123 86519
CZ-4B R/B               
1 29507U 06046C   26062.07844657  .00005790  00000+0  29430-3 0  9997
2 29507  97.5606 107.0048 0031819 291.4105  68.3734 15.16820564 59049
CZ-2C R/B               
1 31114U 07010B   26062.17402307  .00000136  00000+0  81753-4 0  9995
2 31114  98.3976 175.7796 0058073 313.9014  45.7376 14.20243384978793
COSMO-SKYMED 1          
1 31598U 07023A   26062.17868942  .00003793  00000+0  33937-3 0  9998
2 31598  97.8862 253.1592 0000825  87.3665 272.7651 14.96471999 13930
COSMOS 2428             
1 31792U 07029A   26061.87998419  .00000084  00000+0  70675-4 0  9990
2 31792  70.9419 217.6361 0008735 284.2813  75.7338 14.12944293963135
SL-16 R/B               
1 31793U 07029B   26061.79422001 -.00000188  00000+0 -72518-4 0  9996
2 31793  70.9755 186.8781 0002417 278.4023 233.4083 14.14834082964396
KORONAS-FOTON           
1 33504U 09003A   26062.08565169  .00013981  00000+0  31432-3 0  9990
2 33504  82.4283 282.7444 0010760 172.1551 187.9866 15.43131494944727
CZ-2C R/B               
1 37731U 11030B   26061.85512564  .00002133  00000+0  27444-3 0  9999
2 37731  97.8530  19.2554 0053055  14.2735  39.3040 14.81188763789089
H-2A R/B                
1 38341U 12025E   26061.90233399  .00004919  00000+0  44642-3 0  9997
2 38341  98.4711  28.4055 0044012 336.6891  23.2331 14.95093298747206
SHIJIAN-16 (SJ-16)      
1 39358U 13057A   26062.19321678  .00006622  00000+0  64885-3 0  9996
2 39358  74.9726 197.3844 0015707 129.4568 230.8013 14.92311517670538
SL-4 R/B                
1 39679U 14021B   26062.07076539  .00018398  00000+0  40645-3 0  9995
2 39679  51.6081   9.5619 0098117  78.8685 282.3311 15.38915730655250
ALOS-2                  
1 39766U 14029A   26062.22614226  .00002945  00000+0  40107-3 0  9992
2 39766  97.9203 160.9171 0001480 100.2298 259.9081 14.79472939635916
YAOGAN-29               
1 41038U 15069A   26062.18219016  .00001052  00000+0  13621-3 0  9994
2 41038  98.0153  90.5944 0002287  48.0257 312.1151 14.82988877554910
ASTRO-H (HITOMI)        
1 41337U 16012A   26062.08981051  .00004259  00000+0  25020-3 0  9997
2 41337  31.0004  39.1348 0010024 265.5260  94.4233 15.09946920551235
